{"type": "FeatureCollection", "features": [ {"type": "Feature", "properties": {"norad_id": 33870, "name": "IRIDIUM 33 DEB", "group": "iridium-33-debris", "lat": 49.351158954498665, "lon": 56.14099407667971, "alt_km": 732.2063533403025, "timestamp": "2025-12-27T13:34:49.680439+00:00", "meta": {"OBJECT_NAME": "IRIDIUM 33 DEB", "OBJECT_ID": "1997-051AP", "EPOCH": "2025-12-27T05:21:57.853728", "MEAN_MOTION": 14.45922947, "ECCENTRICITY": 0.00228135, "INCLINATION": 86.3732, "RA_OF_ASC_NODE": 52.0513, "ARG_OF_PERICENTER": 132.3375, "MEAN_ANOMALY": 297.0077, "EPHEMERIS_TYPE": 0, "CLASSIFICATION_TYPE": "U", "NORAD_CAT_ID": 33870, "ELEMENT_SET_NO": 999, "REV_AT_EPOCH": 88346, "BSTAR": 0.00074104774, "MEAN_MOTION_DOT": 2.662e-05, "MEAN_MOTION_DDOT": 0}, "tle": {"line1": "1 33870U 97051AP  25361.22358627  .00002662  00000+0  74105-3 0  9990", "line2": "2 33870  86.3732  52.0513 0022813 132.3375 297.0077 14.45922947883466"}}, "geometry": {"type": "Point", "coordinates": [56.14099407667971, 49.351158954498665]}}, {"type": "Feature", "properties": {"norad_id": 33881, "name": "IRIDIUM 33 DEB", "group": "iridium-33-debris", "lat": 45.11697196905527, "lon": -83.341321930865, "alt_km": 656.8254917420618, "timestamp": "2025-12-27T13:34:49.680449+00:00", "meta": {"OBJECT_NAME": "IRIDIUM 33 DEB", "OBJECT_ID": "1997-051BA", "EPOCH": "2025-12-27T06:38:24.101376", "MEAN_MOTION": 14.56845327, "ECCENTRICITY": 0.00609653, "INCLINATION": 86.3853, "RA_OF_ASC_NODE": 100.4236, "ARG_OF_PERICENTER": 127.595, "MEAN_ANOMALY": 291.3, "EPHEMERIS_TYPE": 0, "CLASSIFICATION_TYPE": "U", "NORAD_CAT_ID": 33881, "ELEMENT_SET_NO": 999, "REV_AT_EPOCH": 87712, "BSTAR": 0.0023748086, "MEAN_MOTION_DOT": 0.00010941, "MEAN_MOTION_DDOT": 0}, "tle": {"line1": "1 33881U 97051BA  25361.27666784  .00010941  00000+0  23748-2 0  9998", "line2": "2 33881  86.3853 100.4236 0060965 127.5950 291.3000 14.56845327877124"}}, "geometry": {"type": "Point", "coordinates": [-83.341321930865, 45.11697196905527]}}, {"type": "Feature", "properties": {"norad_id": 33884, "name": "IRIDIUM 33 DEB", "group": "iridium-33-debris", "lat": 66.34379462668406, "lon": 174.7940818866568, "alt_km": 635.5030296825671, "timestamp": "2025-12-27T13:34:49.680460+00:00", "meta": {"OBJECT_NAME": "IRIDIUM 33 DEB", "OBJECT_ID": "1997-051BD", "EPOCH": "2025-12-27T06:39:23.422752", "MEAN_MOTION": 14.77728522, "ECCENTRICITY": 0.00087452, "INCLINATION": 86.3709, "RA_OF_ASC_NODE": 3.2548, "ARG_OF_PERICENTER": 265.881, "MEAN_ANOMALY": 113.76, "EPHEMERIS_TYPE": 0, "CLASSIFICATION_TYPE": "U", "NORAD_CAT_ID": 33884, "ELEMENT_SET_NO": 999, "REV_AT_EPOCH": 89062, "BSTAR": 0.001756351, "MEAN_MOTION_DOT": 0.0001263, "MEAN_MOTION_DDOT": 0}, "tle": {"line1": "1 33884U 97051BD  25361.27735443  .00012630  00000+0  17564-2 0  9996", "line2": "2 33884  86.3709   3.2548 0008745 265.8810 113.7600 14.77728522890625"}}, "geometry": {"type": "Point", "coordinates": [174.7940818866568, 66.34379462668406]}}, {"type": "Feature", "properties": {"norad_id": 33886, "name": "IRIDIUM 33 DEB", "group": "iridium-33-debris", "lat": -13.335082160046039, "lon": 60.1282490600135, "alt_km": 785.1727085501743, "timestamp": "2025-12-27T13:34:49.680470+00:00", "meta": {"OBJECT_NAME": "IRIDIUM 33 DEB", "OBJECT_ID": "1997-051BF", "EPOCH": "2025-12-27T03:52:21.169632", "MEAN_MOTION": 14.36068773, "ECCENTRICITY": 0.00137205, "INCLINATION": 86.3818, "RA_OF_ASC_NODE": 61.1579, "ARG_OF_PERICENTER": 190.8914, "MEAN_ANOMALY": 225.9418, "EPHEMERIS_TYPE": 0, "CLASSIFICATION_TYPE": "U", "NORAD_CAT_ID": 33886, "ELEMENT_SET_NO": 999, "REV_AT_EPOCH": 88259, "BSTAR": 0.00021197521, "MEAN_MOTION_DOT": 6.37e-06, "MEAN_MOTION_DDOT": 0}, "tle": {"line1": "1 33886U 97051BF  25361.16135613  .00000637  00000+0  21198-3 0  9992", "line2": "2 33886  86.3818  61.1579 0013720 190.8914 225.9418 14.36068773882596"}}, "geometry": {"type": "Point", "coordinates": [60.1282490600135, -13.335082160046039]}}, {"type": "Feature", "properties": {"norad_id": 33887, "name": "IRIDIUM 33 DEB", "group": "iridium-33-debris", "lat": -14.890077414127193, "lon": -3.982211682404469, "alt_km": 776.6924981047741, "timestamp": "2025-12-27T13:34:49.680481+00:00", "meta": {"OBJECT_NAME": "IRIDIUM 33 DEB", "OBJECT_ID": "1997-051BG", "EPOCH": "2025-12-27T00:31:57.064800", "MEAN_MOTION": 14.372341, "ECCENTRICITY": 0.00060101, "INCLINATION": 86.3043, "RA_OF_ASC_NODE": 357.2367, "ARG_OF_PERICENTER": 173.3185, "MEAN_ANOMALY": 240.7076, "EPHEMERIS_TYPE": 0, "CLASSIFICATION_TYPE": "U", "NORAD_CAT_ID": 33887, "ELEMENT_SET_NO": 999, "REV_AT_EPOCH": 88370, "BSTAR": 0.00017796673, "MEAN_MOTION_DOT": 5.5e-06, "MEAN_MOTION_DDOT": 0}, "tle": {"line1": "1 33887U 97051BG  25361.02218825  .00000550  00000+0  17797-3 0  9999", "line2": "2 33887  86.3043 357.2367 0006010 173.3185 240.7076 14.37234100883700"}}, "geometry": {"type": "Point", "coordinates": [-3.982211682404469, -14.890077414127193]}}, {"type": "Feature", "properties": {"norad_id": 33953, "name": "IRIDIUM 33 DEB", "group": "iridium-33-debris", "lat": 86.21323903924902, "lon": 120.19448472376733, "alt_km": 689.9043971361671, "timestamp": "2025-12-27T13:34:49.680491+00:00", "meta": {"OBJECT_NAME": "IRIDIUM 33 DEB", "OBJECT_ID": "1997-051BN", "EPOCH": "2025-12-27T03:31:11.629632", "MEAN_MOTION": 14.55459048, "ECCENTRICITY": 0.00173983, "INCLINATION": 86.3835, "RA_OF_ASC_NODE": 47.5249, "ARG_OF_PERICENTER": 58.4623, "MEAN_ANOMALY": 355.3188, "EPHEMERIS_TYPE": 0, "CLASSIFICATION_TYPE": "U", "NORAD_CAT_ID": 33953, "ELEMENT_SET_NO": 999, "REV_AT_EPOCH": 88513, "BSTAR": 0.0012769031, "MEAN_MOTION_DOT": 5.584e-05, "MEAN_MOTION_DDOT": 0}, "tle": {"line1": "1 33953U 97051BN  25361.14666238  .00005584  00000+0  12769-2 0  9996", "line2": "2 33953  86.3835  47.5249 0017398  58.4623 355.3188 14.55459048885138"}}, "geometry": {"type": "Point", "coordinates": [120.19448472376733, 86.21323903924902]}}, {"type": "Feature", "properties": {"norad_id": 33960, "name": "IRIDIUM 33 DEB", "group": "iridium-33-debris", "lat": 60.50936351216672, "lon": -70.82517366529083, "alt_km": 600.3663724755907, "timestamp": "2025-12-27T13:34:49.680502+00:00", "meta": {"OBJECT_NAME": "IRIDIUM 33 DEB", "OBJECT_ID": "1997-051BV", "EPOCH": "2025-12-27T05:54:29.267712", "MEAN_MOTION": 14.85940294, "ECCENTRICITY": 0.00069595, "INCLINATION": 86.2534, "RA_OF_ASC_NODE": 282.6722, "ARG_OF_PERICENTER": 37.6195, "MEAN_ANOMALY": 114.1546, "EPHEMERIS_TYPE": 0, "CLASSIFICATION_TYPE": "U", "NORAD_CAT_ID": 33960, "ELEMENT_SET_NO": 999, "REV_AT_EPOCH": 89082, "BSTAR": 0.00338648, "MEAN_MOTION_DOT": 0.00029672, "MEAN_MOTION_DDOT": 0}, "tle": {"line1": "1 33960U 97051BV  25361.24617208  .00029672  00000+0  33865-2 0  9992", "line2": "2 33960  86.2534 282.6722 0006959  37.6195 114.1546 14.85940294890825"}}, "geometry": {"type": "Point", "coordinates": [-70.82517366529083, 60.50936351216672]}}, {"type": "Feature", "properties": {"norad_id": 33966, "name": "IRIDIUM 33 DEB", "group": "iridium-33-debris", "lat": -85.53711123466574, "lon": -86.3742089419698, "alt_km": 737.8566643134418, "timestamp": "2025-12-27T13:34:49.680512+00:00", "meta": {"OBJECT_NAME": "IRIDIUM 33 DEB", "OBJECT_ID": "1997-051CB", "EPOCH": "2025-12-27T02:41:52.155744", "MEAN_MOTION": 14.49650028, "ECCENTRICITY": 0.00089494, "INCLINATION": 86.391, "RA_OF_ASC_NODE": 39.858, "ARG_OF_PERICENTER": 144.2354, "MEAN_ANOMALY": 278.1615, "EPHEMERIS_TYPE": 0, "CLASSIFICATION_TYPE": "U", "NORAD_CAT_ID": 33966, "ELEMENT_SET_NO": 999, "REV_AT_EPOCH": 88650, "BSTAR": 0.00056095778, "MEAN_MOTION_DOT": 2.176e-05, "MEAN_MOTION_DDOT": 0}, "tle": {"line1": "1 33966U 97051CB  25361.11240921  .00002176  00000+0  56096-3 0  9990", "line2": "2 33966  86.3910  39.8580 0008949 144.2354 278.1615 14.49650028886508"}}, "geometry": {"type": "Point", "coordinates": [-86.3742089419698, -85.53711123466574]}}, {"type": "Feature", "properties": {"norad_id": 34071, "name": "IRIDIUM 33 DEB", "group": "iridium-33-debris", "lat": -33.14801209332356, "lon": 8.990809805356578, "alt_km": 734.7244176476015, "timestamp": "2025-12-27T13:34:49.680522+00:00", "meta": {"OBJECT_NAME": "IRIDIUM 33 DEB", "OBJECT_ID": "1997-051CE", "EPOCH": "2025-12-27T07:06:22.788576", "MEAN_MOTION": 14.49530305, "ECCENTRICITY": 0.00097732, "INCLINATION": 86.3454, "RA_OF_ASC_NODE": 11.5003, "ARG_OF_PERICENTER": 68.6882, "MEAN_ANOMALY": 291.5364, "EPHEMERIS_TYPE": 0, "CLASSIFICATION_TYPE": "U", "NORAD_CAT_ID": 34071, "ELEMENT_SET_NO": 999, "REV_AT_EPOCH": 88545, "BSTAR": 0.0007017711, "MEAN_MOTION_DOT": 2.711e-05, "MEAN_MOTION_DDOT": 0}, "tle": {"line1": "1 34071U 97051CE  25361.29609709  .00002711  00000+0  70177-3 0  9991", "line2": "2 34071  86.3454  11.5003 0009773  68.6882 291.5364 14.49530305885455"}}, "geometry": {"type": "Point", "coordinates": [8.990809805356578, -33.14801209332356]}}, {"type": "Feature", "properties": {"norad_id": 34077, "name": "IRIDIUM 33 DEB", "group": "iridium-33-debris", "lat": -86.12047941234817, "lon": -23.817261885449053, "alt_km": 683.2279505860943, "timestamp": "2025-12-27T13:34:49.680533+00:00", "meta": {"OBJECT_NAME": "IRIDIUM 33 DEB", "OBJECT_ID": "1997-051CL", "EPOCH": "2025-12-27T02:47:01.299264", "MEAN_MOTION": 14.65029406, "ECCENTRICITY": 0.00085356, "INCLINATION": 86.3849, "RA_OF_ASC_NODE": 45.1729, "ARG_OF_PERICENTER": 351.6698, "MEAN_ANOMALY": 68.7285, "EPHEMERIS_TYPE": 0, "CLASSIFICATION_TYPE": "U", "NORAD_CAT_ID": 34077, "ELEMENT_SET_NO": 999, "REV_AT_EPOCH": 88543, "BSTAR": 0.0019034333, "MEAN_MOTION_DOT": 0.00010235, "MEAN_MOTION_DDOT": 0}, "tle": {"line1": "1 34077U 97051CL  25361.11598726  .00010235  00000+0  19034-2 0  9998", "line2": "2 34077  86.3849  45.1729 0008535 351.6698  68.7285 14.65029406885439"}}, "geometry": {"type": "Point", "coordinates": [-23.817261885449053, -86.12047941234817]}}]}